id,admin_country,admin_country_code,admin_name_field,admin_id_field,intersected_area_ha
1,Bolivia,BO,San Ignacio,080501,55.14289285618172
2,Bolivia,BO,Mapiri,020607,94.7070987577567
3,Bolivia,BO,Puerto Rico,090201,40.843100101446396
24,Bolivia,BO,Magdalena,080801,27.413614104279468
33,Bolivia,BO,San Javier,080102,5.101490878449149
178,Bolivia,BO,Puerto Villarroel,031205,21.31729628945045
202,Bolivia,BO,Nueva Esperanza,090501,147.91659405446126
370,Brasil,BR,Oriximiná,1505304,27.432713981451744
380,Brasil,BR,Almeirim,1500503,2268.538201129296
389,Brasil,BR,Pedra Branca do Amapari,1600154,110.68217841988508
394,Brasil,BR,Manaus,1302603,72.25697339663812
396,Brasil,BR,Maués,1302900,7322.454134150158
397,Brasil,BR,Lábrea,1302405,238.3811705340272
397,Brasil,BR,Porto Velho,1100205,495.71759599708355
398,Brasil,BR,Calçoene,1600204,833.6619205812152
398,Brasil,BR,Mazagão,1600402,27.428100912482094
398,Brasil,BR,Oiapoque,1600501,171.34459158318992
398,Brasil,BR,Pedra Branca do Amapari,1600154,75.36123577898964
398,Brasil,BR,Serra do Navio,1600055,68.64961562322682
398,Brasil,BR,Tartarugalzinho,1600709,482.15146565488214
401,Brasil,BR,Oriximiná,1505304,1801.5038464800632
404,Brasil,BR,Altamira,1500602,2851.9039865194377
404,Brasil,BR,São Félix do Xingu,1507300,985.7351647921149
411,Brasil,BR,Itaituba,1503606,65.78488047256437
428,Brasil,BR,Xambioá,1722107,81.24163567958112
433,Brasil,BR,Parauapebas,1505536,18.88594070487216
438,Brasil,BR,Soure,1507904,27.094006554653845
454,Brasil,BR,Oiapoque,1600501,109.80914465155855
458,Brasil,BR,Presidente Figueiredo,1303536,76.48518801212983
460,Brasil,BR,Itaituba,1503606,5037.329662953603
460,Brasil,BR,Trairão,1508050,1290.3327377842202
465,Brasil,BR,Jutaí,1302306,27.186210634663386
466,Brasil,BR,Caracaraí,1400209,27.151135152448887
467,Brasil,BR,Itapuã do Oeste,1101104,2466.2638784031187
469,Brasil,BR,Itaituba,1503606,36605.025010264624
469,Brasil,BR,Jacareacanga,1503754,3461.5621312714866
469,Brasil,BR,Maués,1302900,924.0944830693004
470,Brasil,BR,Manaus,1302603,303.43311685865314
474,Brasil,BR,Jutaí,1302306,26.592787339984266
475,Brasil,BR,Maués,1302900,16.82035446142009
486,Brasil,BR,Barcelos,1300409,41.18678687580462
498,Brasil,BR,Caracaraí,1400209,27.264371203055784
510,Brasil,BR,Borba,1300805,406.9686515088374
512,Brasil,BR,Itaituba,1503606,10.178213897558278
512,Brasil,BR,Jacareacanga,1503754,16595.784837600437
514,Brasil,BR,Altamira,1500602,81.34832948408761
519,Brasil,BR,Altamira,1500602,22.094757579463796
535,Brasil,BR,Maués,1302900,511.05825218523273
540,Brasil,BR,Altamira,1500602,346.3238946227075
541,Brasil,BR,Manicoré,1302702,40.79134475471001
541,Brasil,BR,Novo Aripuanã,1303304,27.131155509018082
543,Brasil,BR,Manaus,1302603,27.04537737972271
551,Brasil,BR,Altamira,1500602,947.2272040416198
551,Brasil,BR,Itaituba,1503606,2941.8779348970115
551,Brasil,BR,Trairão,1508050,2255.3937593212922
555,Brasil,BR,Almeirim,1500503,1273.337691209147
568,Brasil,BR,Altamira,1500602,144.36522056163798
569,Brasil,BR,Itaituba,1503606,11662.742604871462
569,Brasil,BR,Novo Progresso,1505031,461.60453640845833
570,Brasil,BR,São Félix do Xingu,1507300,63.40835006895055
571,Brasil,BR,Óbidos,1505106,44.03366721228022
572,Brasil,BR,Itaituba,1503606,2200.899095693057
572,Brasil,BR,Trairão,1508050,771.5931935450529
575,Brasil,BR,Cruzeiro do Sul,1200203,42.762348225438984
579,Brasil,BR,Nova Bandeirantes,5106158,2227.7175704596625
580,Brasil,BR,Colniza,5103254,96.37734895407954
581,Brasil,BR,Altamira,1500602,65.33397871186652
611,Brasil,BR,Canutama,1300904,35.916415694300944
617,Brasil,BR,Iranduba,1301852,224.4755020744881
617,Brasil,BR,Manacapuru,1302504,178.11281796454517
617,Brasil,BR,Manaus,1302603,3.047069657590932
635,Brasil,BR,Itaituba,1503606,241403.6080653702
635,Brasil,BR,Jacareacanga,1503754,46164.61622924209
635,Brasil,BR,Novo Progresso,1505031,4.334634885882727
635,Brasil,BR,Trairão,1508050,139.57657696963685
643,Brasil,BR,Itaituba,1503606,48.02751265469217
643,Brasil,BR,Novo Progresso,1505031,7451.8884682563585
648,Brasil,BR,Trairão,1508050,68.0392614755222
651,Brasil,BR,Itaituba,1503606,3341.204613152663
651,Brasil,BR,Trairão,1508050,3048.367438626461
653,Brasil,BR,Monção,2106904,54.72749348340796
653,Brasil,BR,Pindaré-Mirim,2108504,82.13622425781932
661,Brasil,BR,Ananindeua,1500800,67.68112925944389
661,Brasil,BR,Belém,1501402,0.009676713263440858
672,Brasil,BR,Alcântara,2100204,40.95323077040112
672,Brasil,BR,Carutapera,2102903,27.43955145825533
672,Brasil,BR,Cândido Mendes,2102606,267.7221084774907
672,Brasil,BR,Godofredo Viana,2104305,99.5119544767422
672,Brasil,BR,Luís Domingues,2106201,301.67792767457695
687,Brasil,BR,Ananindeua,1500800,10.592965591223718
687,Brasil,BR,Marituba,1504422,0.4812649048827948
706,Brasil,BR,Marabá,1504208,136.75573534511156
716,Brasil,BR,Parauapebas,1505536,61.34926061321164
735,Colombia,CO,Guainía,94,129.84610196153153
744,Colombia,CO,Cauca,19,33.777225910993984
899,Ecuador,EC,ARCHIDONA,1503,82.82908499684225
899,Ecuador,EC,EL CHACO,1504,27.601209999042474
909,Ecuador,EC,YANTZAZA,1905,2.5360533373465124
934,Guyana_Francesa,GF,Roura,1310,3828.1026350839797
936,Guyana_Francesa,GF,Camopi,1356,483.80288270807796
936,Guyana_Francesa,GF,Maripasoula,2353,24.10952824303216
936,Guyana_Francesa,GF,Papaïchton,2362,73.17836040928646
936,Guyana_Francesa,GF,Saül,2352,61.4719873268202
940,Guyana_Francesa,GF,Saint-Élie,1358,46.391615810797695
942,Guyana_Francesa,GF,Saint-Laurent-du-Maroni,2311,2232.2792107080463
944,Guyana_Francesa,GF,Roura,1310,107.7978312021452
945,Guyana_Francesa,GF,Maripasoula,2353,1058.9695512449548
945,Guyana_Francesa,GF,Papaïchton,2362,810.0110662984354
945,Guyana_Francesa,GF,Saül,2352,130.9408607398513
945,Suriname,SU,Sipaliwini,09,51.78528810875659
948,Guyana_Francesa,GF,Roura,1310,29.435036818256314
951,Guyana_Francesa,GF,Papaïchton,2362,216.34751109694892
956,Guyana,GY,Potaro-Siparuni,08,117.27659227407024
957,Guyana,GY,Potaro-Siparuni,08,25.408652696361266
959,Peru,PE,MANU,1702,15.09635064090702
978,Peru,PE,UCAYALI,1606,187.01841872470789
983,Peru,PE,REQUENA,1605,27.22424426049703
987,Peru,PE,TAMBOPATA,1701,1759.5764462403872
1005,Peru,PE,LA CONVENCION,0809,67.82822144419164
1011,Peru,PE,LA CONVENCION,0809,27.127972722632922
1013,Peru,PE,SATIPO,1206,27.264924135767117
1021,Peru,PE,MARISCAL CACERES,2206,136.0398388080826
1022,Peru,PE,MARISCAL CACERES,2206,1.5515403853373344
1040,Peru,PE,PUERTO INCA,1009,40.988881019028724
1041,Peru,PE,CARABAYA,2103,27.44347941234838
1041,Peru,PE,TAMBOPATA,1701,3608.894280285776
1059,Peru,PE,MARISCAL CACERES,2206,110.05744734338535
1062,Peru,PE,MAYNAS,1601,54.35683900574206
1065,Peru,PE,RIOJA,2208,41.35287581963699
1070,Peru,PE,CORONEL PORTILLO,2501,27.20541191553583
1073,Peru,PE,MANU,1702,14267.979361125981
1073,Peru,PE,QUISPICANCHI,0812,27.499308456186274
1074,Peru,PE,LA CONVENCION,0809,67.46372212752863
1082,Peru,PE,TAMBOPATA,1701,26163.74434416364
1086,Peru,PE,LA CONVENCION,0809,40.68060008896541
1106,Peru,PE,LAMAS,2205,54.95725757888861
1194,Peru,PE,MAYNAS,1601,1.6958665791679908
1299,Peru,PE,TAMBOPATA,1701,2.426411065780268
1324,Suriname,SU,Brokopondo,01,1731.808409420221
1327,Suriname,SU,Brokopondo,01,1201.064968728983
1334,Venezuela,VE,Barceloneta,070702,10530.657696625
1335,Venezuela,VE,Dalla Costa,070902,200.00840493896163
1337,Venezuela,VE,Pedro Cova,070603,5568.440994803606
1337,Venezuela,VE,Sección Capital Roscio,070801,1578.310383671584
1337,Venezuela,VE,Sección Capital el Callao,070301,420.1980415212343
1339,Guyana,GY,Barima-Waini,01,905.433399451363
1339,Guyana,GY,Cuyuni-Mazaruni,07,884.8324558340756
1339,Venezuela,VE,Almirante Luis Brión,100102,588.7044009020461
1339,Venezuela,VE,Dalla Costa,070902,13252.153709759144
1339,Venezuela,VE,Francisco Aniceto Lugo,100103,2346.7246016993686
1339,Venezuela,VE,San Isidro,070903,30894.38005396192
1339,Venezuela,VE,Sección Capital Sifontes,070901,5682.324799454388
1341,Venezuela,VE,Barceloneta,070702,438.61660186491434
1341,Venezuela,VE,Ikabaru,070402,98.71360255048505
1341,Venezuela,VE,Pedro Cova,070603,47.823117401551485
1341,Venezuela,VE,San Isidro,070903,160.16652543511105
1341,Venezuela,VE,Sección Capital Gran Sabana,070401,3320.606454075748
1343,Venezuela,VE,Solano,020701,142.40496181130138
1345,Venezuela,VE,Ascensión Farreras,070203,27.553673002120462
1348,Venezuela,VE,Yacapana,020202,4603.848541903282
1350,Venezuela,VE,Ariapo,071002,821.3198535783847
1350,Venezuela,VE,Ascensión Farreras,070203,27.553673002120462
1350,Venezuela,VE,Barceloneta,070702,347.05953650755276
1350,Venezuela,VE,Motiaco,071005,82.30246250741813
1356,Venezuela,VE,Medio Ventuari,020602,27.072630437863868
1367,Venezuela,VE,Ariapo,071002,16.521842455472637
1367,Venezuela,VE,Barceloneta,070702,347.0595350224319
1371,Venezuela,VE,Mavaca,020104,68.73464074907933
1371,Venezuela,VE,Sierra Parima,020105,940.7476847619064
